ATLAS CENTAUR R/B       
1 06155U 72065B   26021.52976424  .00001950  00000+0  26945-3 0  9990
2 06155  35.0000 222.0972 0034230 332.3416  27.5464 14.77529319834286
SL-8 R/B                
1 08459U 75112B   26021.48055560  .00000528  00000+0  18220-3 0  9996
2 08459  74.0609 105.7608 0016193 212.7614 147.2538 14.38175853625080
SL-3 R/B                
1 10114U 77057B   26021.43247618  .00017691  00000+0  38861-3 0  9991
2 10114  97.5709 191.3442 0008575  93.4755 266.7474 15.44051755661037
SEASAT 1                
1 10967U 78064A   26021.45834119  .00000683  00000+0  22943-3 0  9993
2 10967 108.0166  26.3764 0001216 283.0739  77.0271 14.46111778499687
SL-14 R/B               
1 11267U 79011B   26021.36217421  .00001281  00000+0  12425-3 0  9990
2 11267  82.5260 141.4676 0015276 211.1335 148.8981 14.91835177521720
SL-8 R/B                
1 11574U 79089B   26021.51127997  .00000656  00000+0  20640-3 0  9994
2 11574  74.0680 178.3679 0015774 358.5371   1.5736 14.42315012429305
SL-14 R/B               
1 11672U 80005B   26021.41125427  .00001190  00000+0  11813-3 0  9994
2 11672  82.5157 352.0693 0014839 326.4921  33.5357 14.90852907469445
SL-8 R/B                
1 12139U 81003B   26021.35552421  .00036489  00000+0  96688-3 0  9995
2 12139  82.9398 333.7315 0269289 344.1019  15.1871 15.08873534307535
SL-3 R/B                
1 12465U 81046B   26021.45753710  .00016523  00000+0  40237-3 0  9995
2 12465  81.2342 346.3865 0019204 177.8691 182.2636 15.40604395431159
SL-3 R/B                
1 12904U 81103B   26021.47417564  .00009812  00000+0  44303-3 0  9994
2 12904  81.1584 268.8053 0014335  83.6457 276.6406 15.20771528966051
SL-3 R/B                
1 13068U 82013B   26021.50285958  .00006762  00000+0  29767-3 0  9999
2 13068  81.1716 216.0519 0022489 341.3664  18.6741 15.21472409397179
SL-3 R/B                
1 13154U 82039B   26021.47405379  .00005922  00000+0  36135-3 0  9994
2 13154  81.1658 270.3706 0029993 118.9118 241.5122 15.09795612374513
