CCSDS_OMM_VERS = 2.0
CREATION_DATE  = 
ORIGINATOR     = 

OBJECT_NAME    = ATLAS CENTAUR R/B
OBJECT_ID      = 1972-065B
CENTER_NAME    = EARTH
REF_FRAME      = TEME
TIME_SYSTEM    = UTC
MEAN_ELEMENT_THEORY = SGP/SGP4

EPOCH          = 2026-01-21T12:42:51.630336
MEAN_MOTION    = 14.77529319
ECCENTRICITY   = .003423
INCLINATION    = 35.0000
RA_OF_ASC_NODE = 222.0972
ARG_OF_PERICENTER = 332.3416
MEAN_ANOMALY   = 27.5464

EPHEMERIS_TYPE = 0
CLASSIFICATION_TYPE = U
NORAD_CAT_ID   = 6155
ELEMENT_SET_NO = 999
REV_AT_EPOCH   = 83428
BSTAR          = .26945E-3
MEAN_MOTION_DOT = .195E-4
MEAN_MOTION_DDOT = 0

CCSDS_OMM_VERS = 2.0
CREATION_DATE  = 
ORIGINATOR     = 

OBJECT_NAME    = SL-8 R/B
OBJECT_ID      = 1975-112B
CENTER_NAME    = EARTH
REF_FRAME      = TEME
TIME_SYSTEM    = UTC
MEAN_ELEMENT_THEORY = SGP/SGP4

EPOCH          = 2026-01-21T11:32:00.003840
MEAN_MOTION    = 14.38175853
ECCENTRICITY   = .0016193
INCLINATION    = 74.0609
RA_OF_ASC_NODE = 105.7608
ARG_OF_PERICENTER = 212.7614
MEAN_ANOMALY   = 147.2538

EPHEMERIS_TYPE = 0
CLASSIFICATION_TYPE = U
NORAD_CAT_ID   = 8459
ELEMENT_SET_NO = 999
REV_AT_EPOCH   = 62508
BSTAR          = .1822E-3
MEAN_MOTION_DOT = .528E-5
MEAN_MOTION_DDOT = 0

CCSDS_OMM_VERS = 2.0
CREATION_DATE  = 
ORIGINATOR     = 

OBJECT_NAME    = SL-3 R/B
OBJECT_ID      = 1977-057B
CENTER_NAME    = EARTH
REF_FRAME      = TEME
TIME_SYSTEM    = UTC
MEAN_ELEMENT_THEORY = SGP/SGP4

EPOCH          = 2026-01-21T10:22:45.941952
MEAN_MOTION    = 15.44051755
ECCENTRICITY   = .0008575
INCLINATION    = 97.5709
RA_OF_ASC_NODE = 191.3442
ARG_OF_PERICENTER = 93.4755
MEAN_ANOMALY   = 266.7474

EPHEMERIS_TYPE = 0
CLASSIFICATION_TYPE = U
NORAD_CAT_ID   = 10114
ELEMENT_SET_NO = 999
REV_AT_EPOCH   = 66103
BSTAR          = .38861E-3
MEAN_MOTION_DOT = .17691E-3
MEAN_MOTION_DDOT = 0

CCSDS_OMM_VERS = 2.0
CREATION_DATE  = 
ORIGINATOR     = 

OBJECT_NAME    = SEASAT 1
OBJECT_ID      = 1978-064A
CENTER_NAME    = EARTH
REF_FRAME      = TEME
TIME_SYSTEM    = UTC
MEAN_ELEMENT_THEORY = SGP/SGP4

EPOCH          = 2026-01-21T11:00:00.678816
MEAN_MOTION    = 14.46111778
ECCENTRICITY   = .0001216
INCLINATION    = 108.0166
RA_OF_ASC_NODE = 26.3764
ARG_OF_PERICENTER = 283.0739
MEAN_ANOMALY   = 77.0271

EPHEMERIS_TYPE = 0
CLASSIFICATION_TYPE = U
NORAD_CAT_ID   = 10967
ELEMENT_SET_NO = 999
REV_AT_EPOCH   = 49968
BSTAR          = .22943E-3
MEAN_MOTION_DOT = .683E-5
MEAN_MOTION_DDOT = 0

CCSDS_OMM_VERS = 2.0
CREATION_DATE  = 
ORIGINATOR     = 

OBJECT_NAME    = SL-14 R/B
OBJECT_ID      = 1979-011B
CENTER_NAME    = EARTH
REF_FRAME      = TEME
TIME_SYSTEM    = UTC
MEAN_ELEMENT_THEORY = SGP/SGP4

EPOCH          = 2026-01-21T08:41:31.851744
MEAN_MOTION    = 14.91835177
ECCENTRICITY   = .0015276
INCLINATION    = 82.5260
RA_OF_ASC_NODE = 141.4676
ARG_OF_PERICENTER = 211.1335
MEAN_ANOMALY   = 148.8981

EPHEMERIS_TYPE = 0
CLASSIFICATION_TYPE = U
NORAD_CAT_ID   = 11267
ELEMENT_SET_NO = 999
REV_AT_EPOCH   = 52172
BSTAR          = .12425E-3
MEAN_MOTION_DOT = .1281E-4
MEAN_MOTION_DDOT = 0

CCSDS_OMM_VERS = 2.0
CREATION_DATE  = 
ORIGINATOR     = 

OBJECT_NAME    = SL-8 R/B
OBJECT_ID      = 1979-089B
CENTER_NAME    = EARTH
REF_FRAME      = TEME
TIME_SYSTEM    = UTC
MEAN_ELEMENT_THEORY = SGP/SGP4

EPOCH          = 2026-01-21T12:16:14.589408
MEAN_MOTION    = 14.42315012
ECCENTRICITY   = .0015774
INCLINATION    = 74.0680
RA_OF_ASC_NODE = 178.3679
ARG_OF_PERICENTER = 358.5371
MEAN_ANOMALY   = 1.5736

EPHEMERIS_TYPE = 0
CLASSIFICATION_TYPE = U
NORAD_CAT_ID   = 11574
ELEMENT_SET_NO = 999
REV_AT_EPOCH   = 42930
BSTAR          = .2064E-3
MEAN_MOTION_DOT = .656E-5
MEAN_MOTION_DDOT = 0

CCSDS_OMM_VERS = 2.0
CREATION_DATE  = 
ORIGINATOR     = 

OBJECT_NAME    = SL-14 R/B
OBJECT_ID      = 1980-005B
CENTER_NAME    = EARTH
REF_FRAME      = TEME
TIME_SYSTEM    = UTC
MEAN_ELEMENT_THEORY = SGP/SGP4

EPOCH          = 2026-01-21T09:52:12.368928
MEAN_MOTION    = 14.90852907
ECCENTRICITY   = .0014839
INCLINATION    = 82.5157
RA_OF_ASC_NODE = 352.0693
ARG_OF_PERICENTER = 326.4921
MEAN_ANOMALY   = 33.5357

EPHEMERIS_TYPE = 0
CLASSIFICATION_TYPE = U
NORAD_CAT_ID   = 11672
ELEMENT_SET_NO = 999
REV_AT_EPOCH   = 46944
BSTAR          = .11813E-3
MEAN_MOTION_DOT = .119E-4
MEAN_MOTION_DDOT = 0

CCSDS_OMM_VERS = 2.0
CREATION_DATE  = 
ORIGINATOR     = 

OBJECT_NAME    = SL-8 R/B
OBJECT_ID      = 1981-003B
CENTER_NAME    = EARTH
REF_FRAME      = TEME
TIME_SYSTEM    = UTC
MEAN_ELEMENT_THEORY = SGP/SGP4

EPOCH          = 2026-01-21T08:31:57.291744
MEAN_MOTION    = 15.08873534
ECCENTRICITY   = .0269289
INCLINATION    = 82.9398
RA_OF_ASC_NODE = 333.7315
ARG_OF_PERICENTER = 344.1019
MEAN_ANOMALY   = 15.1871

EPHEMERIS_TYPE = 0
CLASSIFICATION_TYPE = U
NORAD_CAT_ID   = 12139
ELEMENT_SET_NO = 999
REV_AT_EPOCH   = 30753
BSTAR          = .96688E-3
MEAN_MOTION_DOT = .36489E-3
MEAN_MOTION_DDOT = 0

CCSDS_OMM_VERS = 2.0
CREATION_DATE  = 
ORIGINATOR     = 

OBJECT_NAME    = SL-3 R/B
OBJECT_ID      = 1981-046B
CENTER_NAME    = EARTH
REF_FRAME      = TEME
TIME_SYSTEM    = UTC
MEAN_ELEMENT_THEORY = SGP/SGP4

EPOCH          = 2026-01-21T10:58:51.205440
MEAN_MOTION    = 15.40604395
ECCENTRICITY   = .0019204
INCLINATION    = 81.2342
RA_OF_ASC_NODE = 346.3865
ARG_OF_PERICENTER = 177.8691
MEAN_ANOMALY   = 182.2636

EPHEMERIS_TYPE = 0
CLASSIFICATION_TYPE = U
NORAD_CAT_ID   = 12465
ELEMENT_SET_NO = 999
REV_AT_EPOCH   = 43115
BSTAR          = .40237E-3
MEAN_MOTION_DOT = .16523E-3
MEAN_MOTION_DDOT = 0

CCSDS_OMM_VERS = 2.0
CREATION_DATE  = 
ORIGINATOR     = 

OBJECT_NAME    = SL-3 R/B
OBJECT_ID      = 1981-103B
CENTER_NAME    = EARTH
REF_FRAME      = TEME
TIME_SYSTEM    = UTC
MEAN_ELEMENT_THEORY = SGP/SGP4

EPOCH          = 2026-01-21T11:22:48.775296
MEAN_MOTION    = 15.20771528
ECCENTRICITY   = .0014335
INCLINATION    = 81.1584
RA_OF_ASC_NODE = 268.8053
ARG_OF_PERICENTER = 83.6457
MEAN_ANOMALY   = 276.6406

EPHEMERIS_TYPE = 0
CLASSIFICATION_TYPE = U
NORAD_CAT_ID   = 12904
ELEMENT_SET_NO = 999
REV_AT_EPOCH   = 96605
BSTAR          = .44303E-3
MEAN_MOTION_DOT = .9812E-4
MEAN_MOTION_DDOT = 0

CCSDS_OMM_VERS = 2.0
CREATION_DATE  = 
ORIGINATOR     = 

OBJECT_NAME    = SL-3 R/B
OBJECT_ID      = 1982-013B
CENTER_NAME    = EARTH
REF_FRAME      = TEME
TIME_SYSTEM    = UTC
MEAN_ELEMENT_THEORY = SGP/SGP4

EPOCH          = 2026-01-21T12:04:07.067712
MEAN_MOTION    = 15.21472409
ECCENTRICITY   = .0022489
INCLINATION    = 81.1716
RA_OF_ASC_NODE = 216.0519
ARG_OF_PERICENTER = 341.3664
MEAN_ANOMALY   = 18.6741

EPHEMERIS_TYPE = 0
CLASSIFICATION_TYPE = U
NORAD_CAT_ID   = 13068
ELEMENT_SET_NO = 999
REV_AT_EPOCH   = 39717
BSTAR          = .29767E-3
MEAN_MOTION_DOT = .6762E-4
MEAN_MOTION_DDOT = 0

CCSDS_OMM_VERS = 2.0
CREATION_DATE  = 
ORIGINATOR     = 

OBJECT_NAME    = SL-3 R/B
OBJECT_ID      = 1982-039B
CENTER_NAME    = EARTH
REF_FRAME      = TEME
TIME_SYSTEM    = UTC
MEAN_ELEMENT_THEORY = SGP/SGP4

EPOCH          = 2026-01-21T11:22:38.247456
MEAN_MOTION    = 15.09795612
ECCENTRICITY   = .0029993
INCLINATION    = 81.1658
RA_OF_ASC_NODE = 270.3706
ARG_OF_PERICENTER = 118.9118
MEAN_ANOMALY   = 241.5122

EPHEMERIS_TYPE = 0
CLASSIFICATION_TYPE = U
NORAD_CAT_ID   = 13154
ELEMENT_SET_NO = 999
REV_AT_EPOCH   = 37451
BSTAR          = .36135E-3
MEAN_MOTION_DOT = .5922E-4
MEAN_MOTION_DDOT = 0

